{"type":"FeatureCollection","features":[{"type":"Feature","id":0,"geometry":{"type":"Polygon","coordinates":[[[35.173889600000003,31.957047899999999],[35.174162199999998,31.956918399999999],[35.174542700000003,31.9570775],[35.174562100000003,31.957106899999999],[35.174079900000002,31.9573362],[35.173889600000003,31.957047899999999]]]},"properties":{"FID":0,"osm_id":1201503830,"building":"warehouse","name":" ","amenity":" ","layer":" ","area":" ","operator":" ","office":" ","building_l":" ","name_en":" ","name_ar":" ","craft":" ","addr_city":" ","addr_postc":" ","cuisine":" ","internet_a":" ","internet_1":" ","addr_stree":" ","government":" "}},{"type":"Feature","id":1,"geometry":{"type":"Polygon","coordinates":[[[35.176332600000002,31.958130499999999],[35.176554500000002,31.958049200000001],[35.176806599999999,31.958811300000001],[35.176730300000003,31.958843000000002],[35.176332600000002,31.958130499999999]]]},"properties":{"FID":1,"osm_id":1314210519,"building":"yes","name":" ","amenity":" ","layer":" ","area":" ","operator":" ","office":" ","building_l":" ","name_en":" ","name_ar":" ","craft":" ","addr_city":" ","addr_postc":" ","cuisine":" ","internet_a":" ","internet_1":" ","addr_stree":" ","government":" "}},{"type":"Feature","id":2,"geometry":{"type":"Polygon","coordinates":[[[35.180711100000003,31.9580427],[35.181001100000003,31.958026400000001],[35.181002999999997,31.958159999999999],[35.180871600000003,31.9581655],[35.1807303,31.958171400000001],[35.180711100000003,31.9580427]]]},"properties":{"FID":2,"osm_id":1264153448,"building":"university","name":"SAMIR ABDULHADI BUILDING/ SCIENCE BULDING - MATH WING","amenity":" ","layer":" ","area":" ","operator":" ","office":" ","building_l":"3","name_en":"S.ABDULHADI","name_ar":"مبنى سمير عبد الهادي / كلية العلوم - جناح الرياضيات","craft":" ","addr_city":" ","addr_postc":" ","cuisine":" ","internet_a":" ","internet_1":" ","addr_stree":" ","government":" "}},{"type":"Feature","id":3,"geometry":{"type":"Polygon","coordinates":[[[35.179971999999999,31.958766000000001],[35.180034200000001,31.958613400000001],[35.180092399999999,31.9586325],[35.1800183,31.958779499999999],[35.179971999999999,31.958766000000001]]]},"properties":{"FID":3,"osm_id":1264153442,"building":"yes","name":"cafetria Abu Ahmed","amenity":" ","layer":" ","area":" ","operator":" ","office":" ","building_l":" ","name_en":" ","name_ar":"كافتريا ابو احمد","craft":" ","addr_city":" ","addr_postc":" ","cuisine":" ","internet_a":" ","internet_1":" ","addr_stree":" ","government":" "}},{"type":"Feature","id":4,"geometry":{"type":"Polygon","coordinates":[[[35.180020399999997,31.958924100000001],[35.180084700000002,31.9588058],[35.180138399999997,31.958828499999999],[35.180079399999997,31.958928700000001],[35.180020399999997,31.958924100000001]]]},"properties":{"FID":4,"osm_id":348245390,"building":"yes","name":"cafetria Al-Zaem","amenity":" ","layer":" ","area":" ","operator":" ","office":" ","building_l":" ","name_en":" ","name_ar":"كافيتريا الزعيم","craft":" ","addr_city":" ","addr_postc":" ","cuisine":" ","internet_a":" ","internet_1":" ","addr_stree":" ","government":" "}},{"type":"Feature","id":5,"geometry":{"type":"Polygon","coordinates":[[[35.1806622,31.958241999999998],[35.181053200000001,31.958230199999999],[35.181049899999998,31.958152500000001],[35.181040400000001,31.957925899999999],[35.1814897,31.9579308],[35.181779599999999,31.957934000000002],[35.181801100000001,31.958007899999998],[35.181809199999996,31.958158099999999],[35.181427100000001,31.9582072],[35.181366599999997,31.958214999999999],[35.181370600000001,31.958458199999999],[35.181287900000001,31.9584607],[35.180672199999997,31.958479199999999],[35.1806622,31.958241999999998]]]},"properties":{"FID":5,"osm_id":131828712,"building":"yes","name":"Faculty of Science Building","amenity":"college","layer":" ","area":" ","operator":" ","office":" ","building_l":" ","name_en":"SCI","name_ar":"مبنى كلية العلوم","craft":" ","addr_city":" ","addr_postc":" ","cuisine":" ","internet_a":" ","internet_1":" ","addr_stree":" ","government":" "}},{"type":"Feature","id":6,"geometry":{"type":"Polygon","coordinates":[[[35.1812495,31.959102300000001],[35.181277700000003,31.958929399999999],[35.181414500000002,31.9589316],[35.181553700000002,31.9589724],[35.181564399999999,31.958908699999999],[35.181801999999998,31.958895200000001],[35.181804700000001,31.959021499999999],[35.181799300000002,31.959097799999999],[35.181741700000003,31.9591137],[35.181739,31.959137599999998],[35.181617000000003,31.9591399],[35.181615600000001,31.9591046],[35.1812495,31.959102300000001]]]},"properties":{"FID":6,"osm_id":131828725,"building":"yes","name":"Administration Building","amenity":" ","layer":" ","area":" ","operator":" ","office":" ","building_l":"3","name_en":"BARAMKI","name_ar":"مبنى الادارة","craft":" ","addr_city":" ","addr_postc":" ","cuisine":" ","internet_a":" ","internet_1":" ","addr_stree":" ","government":" "}},{"type":"Feature","id":7,"geometry":{"type":"Polygon","coordinates":[[[35.181701500000003,31.958686799999999],[35.181840899999997,31.9586322],[35.181873099999997,31.958695899999999],[35.182034000000002,31.9586322],[35.182184200000002,31.958932600000001],[35.182028899999999,31.9589885],[35.181992899999997,31.958940999999999],[35.181915099999998,31.958972800000002],[35.181819500000003,31.9587869],[35.181763099999998,31.958808099999999],[35.181701500000003,31.958686799999999]]]},"properties":{"FID":7,"osm_id":196388558,"building":"yes","name":"Kamal Naser Hall","amenity":" ","layer":"-1","area":" ","operator":" ","office":" ","building_l":"2","name_en":" ","name_ar":"قاعة كمال ناصر","craft":" ","addr_city":" ","addr_postc":" ","cuisine":" ","internet_a":" ","internet_1":" ","addr_stree":" ","government":" "}},{"type":"Feature","id":8,"geometry":{"type":"Polygon","coordinates":[[[35.182404499999997,31.958333100000001],[35.182412599999999,31.958151000000001],[35.182720799999998,31.958155999999999],[35.1827197,31.9583808],[35.182624400000002,31.958380399999999],[35.182624599999997,31.958336800000001],[35.182404499999997,31.958333100000001]]]},"properties":{"FID":8,"osm_id":196468126,"building":"university","name":"Naseeb Shaheen Building / Graduate Studies Building","amenity":" ","layer":" ","area":" ","operator":" ","office":" ","building_l":"3","name_en":"N. Shaheen","name_ar":"مبنى نسيب شاهين / مبنى الدراسات العليا","craft":" ","addr_city":" ","addr_postc":" ","cuisine":" ","internet_a":" ","internet_1":" ","addr_stree":" ","government":" "}},{"type":"Feature","id":9,"geometry":{"type":"Polygon","coordinates":[[[35.182777000000002,31.958390300000001],[35.182783399999998,31.9580743],[35.183033299999998,31.958077899999999],[35.183109100000003,31.958079000000001],[35.183111500000003,31.957959599999999],[35.1832621,31.9579618],[35.1833837,31.958070599999999],[35.1835643,31.958234300000001],[35.183579299999998,31.958387299999998],[35.183338399999997,31.9583884],[35.183336599999997,31.9584771],[35.183206499999997,31.958483300000001],[35.183211900000003,31.958405899999999],[35.182777000000002,31.958390300000001]]]},"properties":{"FID":9,"osm_id":131828748,"building":"yes","name":"Abdulrahman al-Jeraisy Building / Business and Economics Building","amenity":" ","layer":" ","area":" ","operator":" ","office":" ","building_l":"4","name_en":"Al-Juraysi","name_ar":"مبنى عبد الرحمن الجريسي / مبنى الأعمال والاقتصاد","craft":" ","addr_city":" ","addr_postc":" ","cuisine":" ","internet_a":" ","internet_1":" ","addr_stree":" ","government":" "}},{"type":"Feature","id":10,"geometry":{"type":"Polygon","coordinates":[[[35.1823336,31.958642099999999],[35.182766999999998,31.9586437],[35.1827702,31.958883799999999],[35.182377000000002,31.9588769],[35.182419400000001,31.958773999999998],[35.182356400000003,31.958736399999999],[35.1823336,31.958642099999999]]]},"properties":{"FID":10,"osm_id":131828713,"building":"yes","name":"Yusuf Ahmed Alghanim Library","amenity":"library","layer":" ","area":" ","operator":" ","office":" ","building_l":" ","name_en":"Yusuf Ahmed Alghanim Library","name_ar":"مكتبة يوسف أحمد الغانم","craft":" ","addr_city":" ","addr_postc":" ","cuisine":" ","internet_a":" ","internet_1":" ","addr_stree":" ","government":" "}},{"type":"Feature","id":11,"geometry":{"type":"Polygon","coordinates":[[[35.18282,31.9586343],[35.183094199999999,31.9586428],[35.183094199999999,31.958767600000002],[35.1829471,31.958818699999998],[35.18282,31.958818699999998],[35.18282,31.9586343]]]},"properties":{"FID":11,"osm_id":1264153450,"building":"university","name":"BIRZEIT UNIVERSITY MUSEUM","amenity":" ","layer":" ","area":" ","operator":" ","office":" ","building_l":" ","name_en":" ","name_ar":"متحف جامعة بيرزيت","craft":" ","addr_city":" ","addr_postc":" ","cuisine":" ","internet_a":" ","internet_1":" ","addr_stree":" ","government":" "}},{"type":"Feature","id":12,"geometry":{"type":"Polygon","coordinates":[[[35.183599000000001,31.9583592],[35.183608999999997,31.9581181],[35.1838531,31.9581096],[35.183876499999997,31.958362000000001],[35.183599000000001,31.9583592]]]},"properties":{"FID":12,"osm_id":1264153449,"building":"university","name":"OMAR ABDULHADI BUILDING/ BUSINESS AND ECONOMICS BUILDING 2","amenity":" ","layer":" ","area":" ","operator":" ","office":" ","building_l":"4","name_en":"O.ABDULHADI","name_ar":"مبنى عمر عبد الهادي / مبنى الأعمال والاقتصاد 2","craft":" ","addr_city":" ","addr_postc":" ","cuisine":" ","internet_a":" ","internet_1":" ","addr_stree":" ","government":" "}},{"type":"Feature","id":13,"geometry":{"type":"Polygon","coordinates":[[[35.179803999999997,31.959299699999999],[35.179856899999997,31.9592907],[35.179833100000003,31.959187499999999],[35.179895299999998,31.959161699999999],[35.179936300000001,31.959182999999999],[35.1800037,31.9594366],[35.179851599999999,31.959461300000001],[35.179803999999997,31.959299699999999]]]},"properties":{"FID":13,"osm_id":1264153441,"building":"university","name":"ZUHEIR ALAMI BUILDING/ ENGINEERING OFFICE AND GENERAL SERVICES BUILDING","amenity":" ","layer":" ","area":" ","operator":" ","office":" ","building_l":"2","name_en":"ALAMI","name_ar":"مبنى الحرس الجامعي، ومشاغل عامة","craft":" ","addr_city":" ","addr_postc":" ","cuisine":" ","internet_a":" ","internet_1":" ","addr_stree":" ","government":" "}},{"type":"Feature","id":14,"geometry":{"type":"Polygon","coordinates":[[[35.179852599999997,31.959544300000001],[35.180029699999999,31.959498799999999],[35.180083099999997,31.959665999999999],[35.180108400000002,31.959772900000001],[35.1800262,31.9597765],[35.179924800000002,31.9597847],[35.179852599999997,31.959544300000001]]]},"properties":{"FID":14,"osm_id":348245387,"building":"university","name":"WALEED AND HELEN KATTAN BUILDING/ UNIVERSITY PRESIDENCY","amenity":" ","layer":" ","area":" ","operator":" ","office":" ","building_l":"2","name_en":"KATTAN","name_ar":"مبنى زهير العلمي / مبنى المكتب الهندسي والخدمات العامة","craft":" ","addr_city":" ","addr_postc":" ","cuisine":" ","internet_a":" ","internet_1":" ","addr_stree":" ","government":" "}},{"type":"Feature","id":15,"geometry":{"type":"Polygon","coordinates":[[[35.180087100000001,31.959130399999999],[35.180202800000004,31.9589295],[35.180357000000001,31.958906299999999],[35.180531700000003,31.958931100000001],[35.180801000000002,31.958969400000001],[35.180822399999997,31.959074900000001],[35.180460799999999,31.959185999999999],[35.180631400000003,31.959293299999999],[35.180695999999998,31.959479399999999],[35.180592400000002,31.959501199999998],[35.180623699999998,31.959607800000001],[35.180739600000003,31.9595834],[35.180791300000003,31.959759999999999],[35.180467299999997,31.959828300000002],[35.180359199999998,31.959851100000002],[35.180311600000003,31.9596886],[35.180477199999999,31.9596537],[35.180440400000002,31.959528299999999],[35.180261899999998,31.959565900000001],[35.180210799999998,31.959391400000001],[35.1803709,31.959357600000001],[35.1803484,31.959280700000001],[35.180137600000002,31.9592849],[35.180087100000001,31.959130399999999]]]},"properties":{"FID":15,"osm_id":196365666,"building":"university","name":"Omar Aggad Engineering Building","amenity":" ","layer":" ","area":" ","operator":" ","office":" ","building_l":"4","name_en":"Aggad","name_ar":"مبنى عمر العقاد للهندسة","craft":" ","addr_city":" ","addr_postc":" ","cuisine":" ","internet_a":" ","internet_1":" ","addr_stree":" ","government":" "}},{"type":"Feature","id":16,"geometry":{"type":"Polygon","coordinates":[[[35.180699400000002,31.959919500000002],[35.180930199999999,31.959856599999998],[35.180964400000001,31.960186199999999],[35.180745899999998,31.960223800000001],[35.180699400000002,31.959919500000002]]]},"properties":{"FID":16,"osm_id":196365665,"building":"university","name":"Engineering Workshops Building","amenity":" ","layer":" ","area":" ","operator":" ","office":" ","building_l":" ","name_en":"WKS","name_ar":"مبنى مشاغل الهندسة","craft":" ","addr_city":" ","addr_postc":" ","cuisine":" ","internet_a":" ","internet_1":" ","addr_stree":" ","government":" "}},{"type":"Feature","id":17,"geometry":{"type":"Polygon","coordinates":[[[35.180749300000002,31.960386400000001],[35.1808476,31.960357699999999],[35.1809054,31.960435400000001],[35.180825800000001,31.960475500000001],[35.180749300000002,31.960386400000001]]]},"properties":{"FID":17,"osm_id":348242117,"building":"university","name":"ELECTRIC GENERATOR","amenity":" ","layer":" ","area":" ","operator":" ","office":" ","building_l":" ","name_en":" ","name_ar":"محطة توليد كهرباء","craft":"electrician","addr_city":" ","addr_postc":" ","cuisine":" ","internet_a":" ","internet_1":" ","addr_stree":" ","government":" "}},{"type":"Feature","id":18,"geometry":{"type":"Polygon","coordinates":[[[35.181513199999998,31.959885799999999],[35.1815134,31.9597774],[35.181523300000002,31.959427999999999],[35.181896799999997,31.9594357],[35.181889900000002,31.959676399999999],[35.182032499999998,31.959679300000001],[35.182082100000002,31.959846800000001],[35.182095699999998,31.9598929],[35.182007200000001,31.9598929],[35.182007200000001,31.9599349],[35.181934200000001,31.9599349],[35.181934200000001,31.959982199999999],[35.181854999999999,31.959982199999999],[35.181854999999999,31.9599875],[35.181854999999999,31.960048199999999],[35.181693899999999,31.960048199999999],[35.181693899999999,31.9599835],[35.181646200000003,31.9599835],[35.181646200000003,31.9599352],[35.181595399999999,31.9599352],[35.1815955,31.9598859],[35.181513199999998,31.959885799999999]]]},"properties":{"FID":18,"osm_id":196484245,"building":"yes","name":"Sheikh Rashid bin Said al-Maktoum Building / Student Complex","amenity":" ","layer":"-1","area":" ","operator":" ","office":" ","building_l":" ","name_en":"Maktoum","name_ar":"مبنى الشيخ راشد بن سعيد آل مكتوم / مجمع الطلبة","craft":" ","addr_city":" ","addr_postc":" ","cuisine":" ","internet_a":" ","internet_1":" ","addr_stree":" ","government":" "}},{"type":"Feature","id":19,"geometry":{"type":"Polygon","coordinates":[[[35.182209100000001,31.959572600000001],[35.182226100000001,31.9591508],[35.182546899999998,31.959092399999999],[35.182454900000003,31.959565600000001],[35.182562099999998,31.9595655],[35.1825622,31.959655999999999],[35.182476800000003,31.959655999999999],[35.182476899999997,31.959728999999999],[35.182328800000001,31.959729100000001],[35.182328599999998,31.9595725],[35.182209100000001,31.959572600000001]]]},"properties":{"FID":19,"osm_id":196384971,"building":"university","name":"Law Building","amenity":" ","layer":" ","area":" ","operator":" ","office":" ","building_l":"4","name_en":"iol","name_ar":"مبنى الحقوق","craft":" ","addr_city":" ","addr_postc":" ","cuisine":" ","internet_a":" ","internet_1":" ","addr_stree":" ","government":" "}},{"type":"Feature","id":20,"geometry":{"type":"Polygon","coordinates":[[[35.182997800000003,31.959372699999999],[35.182999799999997,31.959236499999999],[35.183192300000002,31.959238599999999],[35.1831934,31.959168099999999],[35.183365500000001,31.959169899999999],[35.183364599999997,31.9592299],[35.183430899999998,31.959230600000001],[35.1834287,31.959377400000001],[35.182997800000003,31.959372699999999]]]},"properties":{"FID":20,"osm_id":348240705,"building":"university","name":"Waleed and Helen Kattan Building","amenity":" ","layer":" ","area":" ","operator":" ","office":" ","building_l":"2","name_en":"Kattan","name_ar":"مبنى وليد وهيلن قطان","craft":" ","addr_city":" ","addr_postc":" ","cuisine":" ","internet_a":" ","internet_1":" ","addr_stree":" ","government":" "}},{"type":"Feature","id":21,"geometry":{"type":"Polygon","coordinates":[[[35.182198200000002,31.9601802],[35.1822552,31.9601252],[35.182368699999998,31.9600157],[35.182569299999997,31.960129200000001],[35.182408799999997,31.960327700000001],[35.182198200000002,31.9601802]]]},"properties":{"FID":21,"osm_id":1264153451,"building":"university","name":"SERVICES BUILDING","amenity":" ","layer":" ","area":" ","operator":" ","office":" ","building_l":"3","name_en":" ","name_ar":"مبنى خدمات","craft":" ","addr_city":" ","addr_postc":" ","cuisine":" ","internet_a":" ","internet_1":" ","addr_stree":" ","government":" "}},{"type":"Feature","id":22,"geometry":{"type":"Polygon","coordinates":[[[35.1828018,31.960173399999999],[35.183201500000003,31.959807099999999],[35.183515300000003,31.960068799999998],[35.183174600000001,31.960414700000001],[35.1828018,31.960173399999999]]]},"properties":{"FID":22,"osm_id":348245391,"building":"yes","name":"Riad Tawfik al-Sadik Building / Law and Public Administration Building","amenity":" ","layer":" ","area":" ","operator":" ","office":" ","building_l":"4","name_en":"Al-Sadik","name_ar":"مبنى رياض توفيق الصادق مبنى الحقوق والإدارة العامة","craft":" ","addr_city":"Birzeit","addr_postc":"14","cuisine":" ","internet_a":" ","internet_1":" ","addr_stree":" ","government":" "}},{"type":"Feature","id":23,"geometry":{"type":"Polygon","coordinates":[[[35.180878900000003,31.960481699999999],[35.181024000000001,31.960434200000002],[35.1812106,31.9608265],[35.181059300000001,31.960865299999998],[35.180878900000003,31.960481699999999]]]},"properties":{"FID":23,"osm_id":1264153438,"building":"stadium","name":"ALI EL-HAJ STADIUM","amenity":" ","layer":" ","area":" ","operator":" ","office":" ","building_l":" ","name_en":"EL-HAJ","name_ar":"مدرج على الحاج","craft":" ","addr_city":" ","addr_postc":" ","cuisine":" ","internet_a":" ","internet_1":" ","addr_stree":" ","government":" "}},{"type":"Feature","id":24,"geometry":{"type":"Polygon","coordinates":[[[35.181383599999997,31.961124600000002],[35.1819372,31.9609497],[35.182074200000002,31.9612357],[35.181532199999999,31.961439800000001],[35.181383599999997,31.961124600000002]]]},"properties":{"FID":24,"osm_id":196384973,"building":"university","name":"Mohamed Bamieh and Waleed Kayyali Building / Physical Education Building","amenity":" ","layer":" ","area":" ","operator":" ","office":" ","building_l":"2","name_en":"Gymnasium","name_ar":"مبنى محمد بامية ووليد كيالي / مبنى التربية الرياضية","craft":" ","addr_city":" ","addr_postc":" ","cuisine":" ","internet_a":" ","internet_1":" ","addr_stree":" ","government":" "}},{"type":"Feature","id":25,"geometry":{"type":"Polygon","coordinates":[[[35.182128800000001,31.961627],[35.182141700000003,31.961418800000001],[35.182476700000002,31.961393699999999],[35.1824668,31.961625699999999],[35.182128800000001,31.961627]]]},"properties":{"FID":25,"osm_id":1262954513,"building":"university","name":"SHUKY AZEEZ SHAHEEN BUILDING/ UNIVERSITY HALLS BUILDING","amenity":" ","layer":" ","area":" ","operator":" ","office":" ","building_l":"2","name_en":"SH SHAHEEN","name_ar":"مبنى شوقي عزيز شاهين قاعات الجامعة العامة","craft":" ","addr_city":" ","addr_postc":" ","cuisine":" ","internet_a":" ","internet_1":" ","addr_stree":" ","government":" "}},{"type":"Feature","id":26,"geometry":{"type":"Polygon","coordinates":[[[35.18236044641219,31.960713205154832],[35.182616052144681,31.96044480011409],[35.182694941294642,31.960498877194311],[35.182691706461412,31.960502274825842],[35.182721739836325,31.960522863342305],[35.182801491368821,31.96043939347129],[35.182918427764321,31.960519548022944],[35.182838994235397,31.960603236555642],[35.182868227211259,31.960623276307558],[35.182871462044659,31.960619879442731],[35.182950354787806,31.960673955657683],[35.182694749055145,31.960942361553066],[35.182584621889646,31.960866871664393],[35.182650627401642,31.960797562670336],[35.182536446139295,31.960719520253349],[35.182470574475985,31.960788695169811],[35.18236044641219,31.960713205154832]]]},"properties":{"FID":26,"osm_id":196486589,"building":"university","name":"AZEEZ SHAHEEN BUILDING/ ARTS BUILDING","amenity":" ","layer":" ","area":" ","operator":" ","office":" ","building_l":"4","name_en":"A.SHAHEEN","name_ar":"مبنى عزيز شاهين مبنى الآداب","craft":" ","addr_city":" ","addr_postc":" ","cuisine":" ","internet_a":" ","internet_1":" ","addr_stree":" ","government":" "}},{"type":"Feature","id":27,"geometry":{"type":"Polygon","coordinates":[[[35.1829605,31.961075099999999],[35.183162799999998,31.960886800000001],[35.183273800000002,31.960972699999999],[35.1831794,31.961060700000001],[35.183071599999998,31.961161000000001],[35.1829605,31.961075099999999]]]},"properties":{"FID":27,"osm_id":257441168,"building":"university","name":"KINGDOM OF BAHRAIN BUILDING FOR WOMEN STUDIES","amenity":" ","layer":" ","area":" ","operator":" ","office":" ","building_l":" ","name_en":"BAHRAIN","name_ar":"مبنى مملكة البحرين الدراسات المرأة","craft":" ","addr_city":" ","addr_postc":" ","cuisine":" ","internet_a":" ","internet_1":" ","addr_stree":" ","government":" "}},{"type":"Feature","id":28,"geometry":{"type":"Polygon","coordinates":[[[35.183336099999998,31.960959200000001],[35.183491699999998,31.960849199999998],[35.1838488,31.961144699999998],[35.1836932,31.961279399999999],[35.183336099999998,31.960959200000001]]]},"properties":{"FID":28,"osm_id":257441170,"building":"university","name":"SAID KHOURY BUILDING FOR DEVELOPMENT STUDIES","amenity":" ","layer":" ","area":" ","operator":" ","office":" ","building_l":" ","name_en":"KHOURY","name_ar":"مبنى سعيد خوري لدراسات التنمية","craft":" ","addr_city":" ","addr_postc":" ","cuisine":" ","internet_a":" ","internet_1":" ","addr_stree":" ","government":" "}},{"type":"Feature","id":29,"geometry":{"type":"Polygon","coordinates":[[[35.183401600000003,31.961523799999998],[35.1835448,31.961394899999998],[35.183640500000003,31.961308800000001],[35.183789500000003,31.961441000000001],[35.183543399999998,31.9616358],[35.183401600000003,31.961523799999998]]]},"properties":{"FID":29,"osm_id":257441177,"building":"university","name":"Mohammad Masrouji Media Building","amenity":" ","layer":" ","area":" ","operator":" ","office":" ","building_l":" ","name_en":"Masrouji","name_ar":"مبنى محمد المسروجي للإعلام","craft":" ","addr_city":" ","addr_postc":" ","cuisine":" ","internet_a":" ","internet_1":" ","addr_stree":" ","government":" "}},{"type":"Feature","id":30,"geometry":{"type":"Polygon","coordinates":[[[35.181718400000001,31.9624472],[35.181739399999998,31.961956600000001],[35.1818782,31.961958899999999],[35.181885600000001,31.961998900000001],[35.182222299999999,31.961997499999999],[35.182244400000002,31.962225],[35.181718400000001,31.9624472]]]},"properties":{"FID":30,"osm_id":1262954506,"building":"university","name":"Samir Aweidah Building / Art, Music and Design Building","amenity":" ","layer":" ","area":" ","operator":" ","office":" ","building_l":"3","name_en":"Aweidah","name_ar":"مبنى سمير عويضة مبنى الفنون والموسيقى والتصميم","craft":" ","addr_city":" ","addr_postc":" ","cuisine":" ","internet_a":" ","internet_1":" ","addr_stree":" ","government":" "}},{"type":"Feature","id":31,"geometry":{"type":"Polygon","coordinates":[[[35.182521899999998,31.9621554],[35.182607599999997,31.962060300000001],[35.182576300000001,31.9620164],[35.182687600000001,31.9619556],[35.1827878,31.962032199999999],[35.182873800000003,31.9620918],[35.182800399999998,31.9621055],[35.182792900000003,31.962162800000002],[35.182713999999997,31.962202399999999],[35.182655599999997,31.9622396],[35.182521899999998,31.9621554]]]},"properties":{"FID":31,"osm_id":257441178,"building":"yes","name":"healthy cafeteria","amenity":"cafe","layer":" ","area":"yes","operator":" ","office":" ","building_l":" ","name_en":" ","name_ar":" ","craft":" ","addr_city":" ","addr_postc":" ","cuisine":"regional","internet_a":"no","internet_1":"yes","addr_stree":" ","government":" "}},{"type":"Feature","id":32,"geometry":{"type":"Polygon","coordinates":[[[35.1827878,31.962032199999999],[35.182874499999997,31.9619833],[35.1829818,31.961976499999999],[35.183035500000003,31.962021199999999],[35.183068800000001,31.961992500000001],[35.183150099999999,31.962060300000001],[35.183114199999999,31.962091300000001],[35.183177200000003,31.962143900000001],[35.183236999999998,31.962193800000001],[35.183073399999998,31.962334899999998],[35.182934000000003,31.962272800000001],[35.182900699999998,31.962226099999999],[35.182826200000001,31.962154099999999],[35.182873800000003,31.9620918],[35.1827878,31.962032199999999]]]},"properties":{"FID":32,"osm_id":257441174,"building":"university","name":"Ghaleb Younis Building / Pharmacy, Nursing and Health Professions Building","amenity":" ","layer":" ","area":" ","operator":" ","office":" ","building_l":"4","name_en":"PNH","name_ar":"مبنى غالب يونس / مبنى الصيدلة والتمريض والمهن الصحية","craft":" ","addr_city":" ","addr_postc":" ","cuisine":"regional","internet_a":" ","internet_1":"yes","addr_stree":" ","government":" "}},{"type":"Feature","id":33,"geometry":{"type":"Polygon","coordinates":[[[35.182181300000003,31.962393299999999],[35.182502300000003,31.962273],[35.182644199999999,31.962466200000001],[35.182289500000003,31.962602400000002],[35.182181300000003,31.962393299999999]]]},"properties":{"FID":33,"osm_id":1262954505,"building":"university","name":"Samih Darwazah Pharmaceutical Industries Institute","amenity":" ","layer":" ","area":" ","operator":" ","office":" ","building_l":"2","name_en":"Darwazah","name_ar":"معهد سميح دروزة للصناعات الدوائية","craft":" ","addr_city":" ","addr_postc":" ","cuisine":" ","internet_a":" ","internet_1":" ","addr_stree":" ","government":" "}},{"type":"Feature","id":34,"geometry":{"type":"Polygon","coordinates":[[[35.183067100000002,31.9628531],[35.183488799999999,31.962355800000001],[35.183657599999997,31.962403399999999],[35.183701999999997,31.9632097],[35.183425300000003,31.963637599999998],[35.1832548,31.963682200000001],[35.1832128,31.963648500000001],[35.1830851,31.963307700000001],[35.183067100000002,31.9628531]]]},"properties":{"FID":34,"osm_id":1262954503,"building":"yes","name":"The Palestinian Museum","amenity":" ","layer":" ","area":" ","operator":" ","office":" ","building_l":"3","name_en":" ","name_ar":"المتحف الفلسطيني","craft":" ","addr_city":" ","addr_postc":" ","cuisine":" ","internet_a":" ","internet_1":" ","addr_stree":" ","government":" "}},{"type":"Feature","id":35,"geometry":{"type":"Polygon","coordinates":[[[35.183414800000001,31.960452400000001],[35.183646899999999,31.9602045],[35.184077500000001,31.960494799999999],[35.183845400000003,31.960742700000001],[35.183414800000001,31.960452400000001]]]},"properties":{"FID":35,"osm_id":248269740,"building":"university","name":"MOHAMMAD OMRAN BAMIEH BUILDING/ EDUCATION BUILDING","amenity":" ","layer":" ","area":" ","operator":"Birzeit Univeristy","office":" ","building_l":"3","name_en":"Bamieh","name_ar":"مبنی محمد عمران بامية / مبنى التربية","craft":" ","addr_city":" ","addr_postc":" ","cuisine":" ","internet_a":" ","internet_1":" ","addr_stree":" ","government":" "}},{"type":"Feature","id":36,"geometry":{"type":"Polygon","coordinates":[[[35.184019800000002,31.960906000000001],[35.184322199999997,31.960711400000001],[35.184520200000001,31.9609329],[35.184464800000001,31.960968600000001],[35.1846228,31.961145200000001],[35.184462099999998,31.961248600000001],[35.184402300000002,31.961162399999999],[35.1844131,31.961114599999998],[35.184260199999997,31.960978099999998],[35.184147400000001,31.961048699999999],[35.184019800000002,31.960906000000001]]]},"properties":{"FID":36,"osm_id":248267990,"building":"university","name":"Najjad Zenni Center for Excellence","amenity":" ","layer":" ","area":" ","operator":"Birzeit University","office":" ","building_l":"2","name_en":"Zeeni","name_ar":"مركز نجاد زعني","craft":" ","addr_city":" ","addr_postc":" ","cuisine":" ","internet_a":" ","internet_1":" ","addr_stree":" ","government":" "}},{"type":"Feature","id":37,"geometry":{"type":"Polygon","coordinates":[[[35.184365200000002,31.961318800000001],[35.184790300000003,31.961138099999999],[35.184897900000003,31.9613242],[35.184604499999999,31.9614376],[35.184694399999998,31.961579499999999],[35.184535699999998,31.9616361],[35.184365200000002,31.961318800000001]]]},"properties":{"FID":37,"osm_id":-3344732,"building":"university","name":"MUNIB RASHID MASRI BUILDING/ INFORMATION TECHNOLOGY BUILDING","amenity":" ","layer":" ","area":" ","operator":"Birzeit Univeristy","office":" ","building_l":"5","name_en":"MASRI","name_ar":"مبنى منيب رشيد المصري / مبنى تكنولوجيا المعلومات","craft":" ","addr_city":" ","addr_postc":" ","cuisine":" ","internet_a":" ","internet_1":" ","addr_stree":" ","government":" "}},{"type":"Feature","id":38,"geometry":{"type":"Polygon","coordinates":[[[35.184871000000001,31.960410199999998],[35.186186499999998,31.960242300000001],[35.186285499999997,31.9613288],[35.185074700000001,31.961234900000001],[35.184871000000001,31.960410199999998]]]},"properties":{"FID":38,"osm_id":1264153453,"building":"yes","name":"Riyadh Housing / Female Dorms","amenity":" ","layer":" ","area":" ","operator":" ","office":" ","building_l":" ","name_en":"Riyadh","name_ar":"إسكان الرياض للطالبات","craft":" ","addr_city":" ","addr_postc":" ","cuisine":" ","internet_a":" ","internet_1":" ","addr_stree":" ","government":" "}},{"type":"Feature","id":39,"geometry":{"type":"Polygon","coordinates":[[[35.183531299999999,31.9619839],[35.184252700000002,31.961931100000001],[35.184252700000002,31.962293500000001],[35.183559600000002,31.962221499999998],[35.183531299999999,31.9619839]]]},"properties":{"FID":39,"osm_id":1262954504,"building":"university","name":"Naseeb Azeez Shaheen Auditorium","amenity":" ","layer":" ","area":" ","operator":" ","office":" ","building_l":"2","name_en":"NSA","name_ar":"مسرح نسيب عزيز شاهين","craft":" ","addr_city":" ","addr_postc":" ","cuisine":" ","internet_a":" ","internet_1":" ","addr_stree":" ","government":" "}},{"type":"Feature","id":40,"geometry":{"type":"Polygon","coordinates":[[[35.186548700000003,31.9638168],[35.186596000000002,31.9636678],[35.1867649,31.963706299999998],[35.186717600000001,31.9638554],[35.186548700000003,31.9638168]]]},"properties":{"FID":40,"osm_id":257441171,"building":"house","name":" ","amenity":" ","layer":" ","area":" ","operator":" ","office":" ","building_l":" ","name_en":" ","name_ar":" ","craft":" ","addr_city":" ","addr_postc":" ","cuisine":" ","internet_a":" ","internet_1":" ","addr_stree":" ","government":" "}},{"type":"Feature","id":41,"geometry":{"type":"Polygon","coordinates":[[[35.180790799999997,31.965791599999999],[35.180814099999999,31.965524899999998],[35.1814544,31.965515100000001],[35.1814544,31.965821200000001],[35.180790799999997,31.965791599999999]]]},"properties":{"FID":41,"osm_id":1264153454,"building":"yes","name":"تكنوبارك","amenity":" ","layer":" ","area":" ","operator":" ","office":" ","building_l":" ","name_en":" ","name_ar":" ","craft":" ","addr_city":" ","addr_postc":" ","cuisine":" ","internet_a":" ","internet_1":" ","addr_stree":" ","government":" "}},{"type":"Feature","id":42,"geometry":{"type":"Polygon","coordinates":[[[35.189027199999998,31.964838799999999],[35.1890523,31.964675],[35.1893837,31.964711600000001],[35.189358599999998,31.964875299999999],[35.189027199999998,31.964838799999999]]]},"properties":{"FID":42,"osm_id":257319378,"building":"apartments","name":"Al-Nabali Hostel","amenity":" ","layer":" ","area":" ","operator":" ","office":" ","building_l":" ","name_en":" ","name_ar":" ","craft":" ","addr_city":"birzeit","addr_postc":" ","cuisine":" ","internet_a":" ","internet_1":" ","addr_stree":"Beir Zait","government":" "}},{"type":"Feature","id":43,"geometry":{"type":"Polygon","coordinates":[[[35.188997899999997,31.96509],[35.1893399,31.9650794],[35.189346999999998,31.9652447],[35.189005000000002,31.965255299999999],[35.188997899999997,31.96509]]]},"properties":{"FID":43,"osm_id":257319377,"building":"apartments","name":" ","amenity":" ","layer":" ","area":" ","operator":" ","office":" ","building_l":" ","name_en":" ","name_ar":" ","craft":" ","addr_city":" ","addr_postc":" ","cuisine":" ","internet_a":" ","internet_1":" ","addr_stree":" ","government":" "}},{"type":"Feature","id":44,"geometry":{"type":"Polygon","coordinates":[[[35.190344099999997,31.963292599999999],[35.190510000000003,31.963138900000001],[35.190650300000001,31.963251499999998],[35.190484400000003,31.9634398],[35.190344099999997,31.963292599999999]]]},"properties":{"FID":44,"osm_id":1036490128,"building":"yes","name":" ","amenity":" ","layer":" ","area":" ","operator":" ","office":"government","building_l":" ","name_en":" ","name_ar":" ","craft":" ","addr_city":" ","addr_postc":" ","cuisine":" ","internet_a":" ","internet_1":" ","addr_stree":" ","government":"office"}},{"type":"Feature","id":45,"geometry":{"type":"Polygon","coordinates":[[[35.191715700000003,31.963812699999998],[35.191744900000003,31.963634200000001],[35.192028700000002,31.963669899999999],[35.192030600000002,31.963829400000002],[35.191715700000003,31.963812699999998]]]},"properties":{"FID":45,"osm_id":966369614,"building":"apartments","name":"suleiman apartments","amenity":" ","layer":" ","area":" ","operator":" ","office":" ","building_l":" ","name_en":" ","name_ar":" ","craft":" ","addr_city":" ","addr_postc":" ","cuisine":" ","internet_a":" ","internet_1":" ","addr_stree":" ","government":" "}},{"type":"Feature","id":46,"geometry":{"type":"Polygon","coordinates":[[[35.190167600000002,31.964857800000001],[35.190730899999998,31.964384500000001],[35.190891800000003,31.964616599999999],[35.190430499999998,31.965112699999999],[35.190167600000002,31.964857800000001]]]},"properties":{"FID":46,"osm_id":239259275,"building":"apartments","name":"University Hostel","amenity":" ","layer":" ","area":" ","operator":" ","office":" ","building_l":" ","name_en":" ","name_ar":" ","craft":" ","addr_city":" ","addr_postc":" ","cuisine":" ","internet_a":" ","internet_1":" ","addr_stree":" ","government":" "}}]}